OBJECT_NAME,OBJECT_ID,EPOCH,MEAN_MOTION,ECCENTRICITY,INCLINATION,RA_OF_ASC_NODE,ARG_OF_PERICENTER,MEAN_ANOMALY,EPHEMERIS_TYPE,CLASSIFICATION_TYPE,NORAD_CAT_ID,ELEMENT_SET_NO,REV_AT_EPOCH,BSTAR,MEAN_MOTION_DOT,MEAN_MOTION_DDOT
SL-16 R/B,1998-045B,2026-06-07T21:53:53.721312,14.16204706,.0009531,71.0121,351.8354,252.8605,107.1475,0,U,25407,999,43987,.5074E-4,.53E-6,0
ISS (ZARYA),1998-067A,2026-06-07T21:37:51.185568,15.49660544,.0006926,51.6338,346.0598,145.2709,214.8733,0,U,25544,999,57031,.14961E-3,.7994E-4,0
CZ-4B R/B,1999-025C,2026-06-08T00:53:18.011328,14.18281952,.0038244,98.6487,201.1055,85.1972,333.7855,0,U,25732,999,40097,.46286E-4,.53E-6,0
SL-16 R/B,1999-039B,2026-06-08T02:50:20.842656,14.81836763,.0014005,97.9842,218.0069,328.6619,31.3757,0,U,25861,999,45025,.75805E-4,.546E-5,0
HELIOS 1B,1999-064A,2026-06-07T23:11:02.626368,14.87983381,.0002332,98.1622,63.8387,104.8535,255.2939,0,U,25977,999,69868,.18896E-3,.1675E-4,0
TERRA,1999-068A,2026-06-08T04:32:45.800736,14.61096061,.0000938,97.9459,209.0921,232.9504,220.4761,0,U,25994,999,40829,.89149E-4,.394E-5,0
ENVISAT,2002-009A,2026-06-07T19:02:26.009376,14.39062705,.000134,98.3830,110.3215,91.0170,331.4929,0,U,27386,999,27213,.49598E-4,.11E-5,0
AQUA,2002-022A,2026-06-08T05:24:45.132768,14.62144733,.000146,98.4273,128.3297,54.6909,2.1780,0,U,27424,999,28196,.17767E-3,.844E-5,0
CZ-4B R/B,2002-024C,2026-06-08T04:31:00.049728,14.14563013,.0051047,98.8703,212.0664,125.2893,304.1771,0,U,27432,999,24203,.44191E-4,.42E-6,0
MIDORI II (ADEOS-II),2002-056A,2026-06-08T04:16:06.050784,14.29344793,.0002226,98.7874,118.3613,89.4129,270.7307,0,U,27597,999,22322,.12746E-3,.279E-5,0
H-2A R/B,2002-056E,2026-06-07T19:11:52.980000,14.33818201,.0068882,98.3308,115.8169,252.9615,166.0380,0,U,27601,999,22702,.9525E-4,.23E-5,0
SL-16 R/B,2004-021B,2026-06-08T02:38:37.403232,14.14612296,.0007495,71.0021,42.7392,265.8006,94.2259,0,U,28353,999,13562,-.86694E-4,-.214E-5,0
CZ-4B R/B,2004-035C,2026-06-08T01:05:00.375072,15.30493100,.0031056,97.3374,192.2224,10.9178,349.2730,0,U,28415,999,19372,.30203E-3,.8961E-4,0
CZ-2C R/B,2004-046B,2026-06-07T17:25:03.510048,14.27024678,.0138136,98.1950,68.0972,248.4529,110.1883,0,U,28480,999,12134,.53237E-4,.101E-5,0
ARIANE 5 R/B,2004-049H,2026-06-08T00:52:42.519072,14.85436761,.0085011,98.2717,330.9368,58.7859,302.1651,0,U,28499,999,15920,.1004E-3,.859E-5,0
CZ-2D R/B,2005-024B,2026-06-08T00:51:30.590208,15.68567062,.0004794,97.3499,178.0132,73.1197,287.0590,0,U,28738,999,15390,.51563E-3,.58556E-3,0
ALOS (DAICHI),2006-002A,2026-06-08T02:32:20.666400,14.70032827,.000179,98.1320,114.7019,61.5359,298.6026,0,U,28931,999,8676,.20978E-3,.1209E-4,0
H-2A R/B,2006-002B,2026-06-08T00:34:25.538016,15.17950869,.004967,98.2560,314.0260,294.3106,65.2943,0,U,28932,999,10813,.33761E-3,.6995E-4,0
RESURS-DK 1,2006-021A,2026-06-07T23:29:54.284064,15.13177297,.0006437,69.9339,3.3886,299.3252,60.7270,0,U,29228,999,10118,.1634E-3,.2799E-4,0
CZ-4B R/B,2006-046C,2026-06-08T00:32:52.981152,15.17717799,.0031417,97.5454,203.6582,316.1729,43.7012,0,U,29507,999,7374,.22885E-3,.4603E-4,0
CZ-2C R/B,2007-010B,2026-06-07T21:38:20.056128,14.20274155,.0059564,98.4091,267.7072,32.9885,327.4986,0,U,31114,999,99252,.69018E-4,.109E-5,0
